FLOCK 4Q-7              
1 58318U 23174BQ  26066.48754445  .00046920  00000+0  86257-3 0  9994
2 58318  97.3935 155.0141 0007911 146.2811 213.8944 15.49046178129975
FLOCK 4Q-2              
1 58320U 23174BS  26066.60370384  .00035830  00000+0  76171-3 0  9999
2 58320  97.3862 152.9765 0008044 145.0697 215.1081 15.44877701129899
FLOCK 4Q-9              
1 58322U 23174BU  26066.23346592  .00039121  00000+0  84121-3 0  9995
2 58322  97.3901 152.6438 0008119 147.7593 212.4153 15.44521720129826
FLOCK 4Q-4              
1 58327U 23174BZ  26066.16962658  .00026216  00000+0  57311-3 0  9991
2 58327  97.3856 151.9551 0007589 164.7799 195.3679 15.44118322129793
FLOCK 4Q-13             
1 58328U 23174CA  26066.20835502  .00039914  00000+0  79417-3 0  9994
2 58328  97.4018 154.3975 0007559 158.9989 201.1573 15.46800178129883
FLOCK 4Q-21             
1 58329U 23174CB  26066.19822468  .00051215  00000+0  70469-3 0  9996
2 58329  97.3932 157.4336 0005980 164.6462 195.4975 15.57098304130109
FLOCK 4BE-18            
1 60480U 24149N   26066.46572520  .00029741  00000+0  79122-3 0  9995
2 60480  97.3772 149.3825 0003187 249.6107 110.4796 15.38170927 86651
FLOCK 4BE-7             
1 60481U 24149P   26066.47725987  .00023715  00000+0  67356-3 0  9995
2 60481  97.3806 148.9876 0002144 241.2934 118.8095 15.36185085 86618
FLOCK 4BE-26            
1 60484U 24149S   26066.48783686  .00131432  00000+0  28610-2 0  9994
2 60484  97.3760 149.3093 0005935 247.3261 112.7359 15.43777905 86653
FLOCK 4BE-36            
1 60486U 24149U   26066.17096667  .00024180  00000+0  62673-3 0  9997
2 60486  97.3786 149.6290 0002807 264.8346  95.2579 15.39017108 86643
FLOCK 4BE-25            
1 60487U 24149V   26066.16500526  .00018262  00000+0  52443-3 0  9999
2 60487  97.3843 148.8235 0001447 228.0696 132.0425 15.35894404 86566
FLOCK 4BE-31            
1 60488U 24149W   26066.46614541  .00033469  00000+0  84297-3 0  9994
2 60488  97.3849 150.5457 0001784 252.3797 107.7254 15.39832381 86700
FLOCK 4BE-20            
1 60489U 24149X   26066.46792919  .00020516  00000+0  60206-3 0  9994
2 60489  97.3747 148.2613 0002587 252.8990 107.1970 15.35187472 86594
FLOCK 4BE-23            
1 60490U 24149Y   26066.17332790  .00017164  00000+0  51032-3 0  9993
2 60490  97.3825 148.2870 0002127 267.1541  92.9459 15.34813634 86531
FLOCK 4BE-15            
1 60491U 24149Z   26066.17622377  .00083846  00000+0  20905-2 0  9991
2 60491  97.3765 149.3251 0003034 315.5766  44.5237 15.39893227 86634
FLOCK 4BE-17            
1 60492U 24149AA  26066.22008203  .00024758  00000+0  69510-3 0  9997
2 60492  97.3817 149.0072 0002214 244.6332 115.4683 15.36538004 86584
